[{"OBJECT_NAME":"STARLINK-32365","OBJECT_ID":"2024-191E","EPOCH":"2026-03-09T06:17:27.978432","MEAN_MOTION":15.2757406,"ECCENTRICITY":3.052e-5,"INCLINATION":42.995,"RA_OF_ASC_NODE":156.6897,"ARG_OF_PERICENTER":104.6492,"MEAN_ANOMALY":255.4394,"EPHEMERIS_TYPE":0,"CLASSIFICATION_TYPE":"U","NORAD_CAT_ID":61625,"ELEMENT_SET_NO":999,"REV_AT_EPOCH":7747,"BSTAR":-2.5661513e-5,"MEAN_MOTION_DOT":-9.67e-6,"MEAN_MOTION_DDOT":0},{"OBJECT_NAME":"SIMSAT 2","OBJECT_ID":"2000-026B","EPOCH":"2026-03-09T20:25:01.673184","MEAN_MOTION":15.29036787,"ECCENTRICITY":0.00037035,"INCLINATION":86.3514,"RA_OF_ASC_NODE":176.4271,"ARG_OF_PERICENTER":287.9875,"MEAN_ANOMALY":72.0969,"EPHEMERIS_TYPE":0,"CLASSIFICATION_TYPE":"U","NORAD_CAT_ID":26366,"ELEMENT_SET_NO":999,"REV_AT_EPOCH":42803,"BSTAR":0.00013465771,"MEAN_MOTION_DOT":3.833e-5,"MEAN_MOTION_DDOT":0}]
